TELSTAR 12V             
1 41036U 15068A   23004.45065387 -.00000106  00000+0  00000+0 0  9997
2 41036   0.0184 347.2057 0002684 297.1442 326.6731  1.00270639 25997
CHINASAT 1C (ZX 1C)     
1 41103U 15073A   23004.18244716 -.00000111  00000+0  00000+0 0  9999
2 41103   3.8927  83.2005 0002070 166.8992 357.3852  1.00270614 26022
ELEKTRO-L 2             
1 41105U 15074A   23004.59430179 -.00000107  00000+0  00000+0 0  9992
2 41105   3.4931  85.7734 0002414 160.0530  57.5806  1.00270817 25883
COSMOS 2513             
1 41121U 15075A   23004.68496056 -.00000126  00000+0  00000+0 0  9998
2 41121   0.0764 109.3427 0003903 160.2169 161.2983  1.00272036 25978
EXPRESS-AMU1            
1 41191U 15082A   23004.53267615  .00000168  00000+0  00000+0 0  9999
2 41191   0.0139 315.8246 0003010 334.0326  41.8825  1.00272868 25633
GAOFEN 4                
1 41194U 15083A   23003.97275847 -.00000322  00000+0  00000+0 0  9999
2 41194   0.1101 214.4063 0006505 341.1088   3.7113  1.00271437 25899
BELINTERSAT-1           
1 41238U 16001A   23004.53572691  .00000119  00000+0  00000+0 0  9992
2 41238   0.0260 110.9457 0001992 108.6192 128.6803  1.00268876 25602
IRNSS-1E                
1 41241U 16003A   23003.61545830 -.00000317  00000+0  00000+0 0  9992
2 41241  30.4273  81.5216 0022124 187.0847 167.6960  1.00277707 25432
EUTELSAT 9B             
1 41310U 16005A   23004.59900872  .00000074  00000+0  00000+0 0  9999
2 41310   0.0389  61.0390 0005363 208.1070  59.4085  1.00271618 25481
SES-9                   
1 41380U 16013A   23004.59215781 -.00000332  00000+0  00000+0 0  9991
2 41380   0.0273 303.7636 0000608  48.4342  73.2033  1.00269379 24806
EUTELSAT 65 WEST A      
1 41382U 16014A   23004.56028955 -.00000263  00000+0  00000+0 0  9999
2 41382   0.0665 322.9441 0002257 316.0554 321.3827  1.00269154 24912
IRNSS-1F                
1 41384U 16015A   23004.53197882  .00000171  00000+0  00000+0 0  9992
2 41384   2.4768 142.9346 0022212 179.5467   5.2855  1.00273816 25028
BEIDOU IGSO-6           
1 41434U 16021A   23003.04131581 -.00000167  00000+0  00000+0 0  9990
2 41434  58.3907  50.7790 0049574 222.5874 299.2288  1.00286795 24832
IRNSS-1G                
1 41469U 16027A   23004.55132944 -.00000323  00000+0  00000+0 0  9999
2 41469   2.3885 145.2553 0002964 253.8788  32.7705  1.00273285 24546
JCSAT-2B                
1 41471U 16028A   23004.57479795 -.00000153  00000+0  00000+0 0  9994
2 41471   0.0184  18.1800 0001290 275.8774 170.7603  1.00269826 24499
THAICOM 8               
1 41552U 16031A   23004.54113115 -.00000109  00000+0  00000+0 0  9997
2 41552   0.0607  49.0538 0004133 269.9404  58.2001  1.00273745 24085
INTELSAT 31 (IS-31)     
1 41581U 16035A   23004.53793024 -.00000138  00000+0  00000+0 0  9997
2 41581   0.0166 288.3849 0002639 276.1835 357.8992  1.00270631 24063
BEIDOU-2 G7             
1 41586U 16037A   23004.59215987 -.00000343  00000+0  00000+0 0  9995
2 41586   1.8298  70.1320 0007645 343.7924  13.6574  1.00267138 24157
ABS-2A (MONGOLSAT-1)    
1 41588U 16038A   23004.39696022 -.00000071  00000+0  00000+0 0  9997
2 41588   0.0046  65.7753 0001834 123.4491 132.1309  1.00269760 24063
EUTELSAT 117 WEST B     
1 41589U 16038B   23004.43506598  .00000001  00000+0  00000+0 0  9993
2 41589   0.0419 195.6032 0000192 257.0444  50.7447  1.00274180 24047
BRISAT                  
1 41591U 16039A   23004.55969444 -.00000184  00000+0  00000+0 0  9996
2 41591   0.0205  22.4663 0002300 259.7347 173.6928  1.00269436 23983
ECHOSTAR 18             
1 41592U 16039B   23004.51323833 -.00000269  00000+0  00000+0 0  9993
2 41592   0.0277  36.5462 0001772 246.4399 304.2848  1.00269354 23991
MUOS-5                  
1 41622U 16041A   23004.48729868 -.00000129  00000+0  00000+0 0  9999
2 41622   5.1392 299.4314 0196138 242.0949 352.7427  1.00272598 24456
TIANTONG-1 1            
1 41725U 16048A   23004.54575088 -.00000307  00000+0  00000+0 0  9998
2 41725   2.2540   7.6182 0007905 321.5240  72.6111  1.00269554 23641
JCSAT-16                
1 41729U 16050A   23004.40053399 -.00000241  00000+0  00000+0 0  9993
2 41729   0.0601  86.3658 0004219 191.8498  62.7106  1.00271111 23432
USA 270                 
1 41744U 16052A   23003.40887725 -.00000114  00000+0  00000+0 0  9998
2 41744   0.9591  93.3983 0000700 285.3458  26.8205  1.00389908  6101
USA 271                 
1 41745U 16052B   23003.21091020 -.00000135  00000+0  00000+0 0  9996
2 41745   0.9253  93.4032 0000418 136.1385  33.0249  1.00143319  6091
INTELSAT 36 (IS-36)     
1 41747U 16053A   23004.53912635 -.00000012  00000+0  00000+0 0  9993
2 41747   0.0103  16.2843 0001178 339.3612  10.8181  1.00271808 23312
INTELSAT 33E (IS-33E)   
1 41748U 16053B   23004.53747021  .00000062  00000+0  00000+0 0  9993
2 41748   0.0412 288.9710 0001893 333.1188  95.2443  1.00271964 23615
INSAT-3DR               
1 41752U 16054A   23004.46852269 -.00000065  00000+0  00000+0 0  9996
2 41752   0.1444  95.0283 0014133 176.6803  74.7621  1.00272187 23183
GSAT-18                 
1 41793U 16060A   23004.54025949 -.00000065  00000+0  00000+0 0  9994
2 41793   0.0297  85.0456 0002499 196.9153  90.4099  1.00272555 22901
SKY MUSTER 2 (NBN1B)    
1 41794U 16060B   23004.56021528 -.00000232  00000+0  00000+0 0  9992
2 41794   0.0186 339.3624 0001804 303.9143 167.1042  1.00271232 22898
HIMAWARI-9              
1 41836U 16064A   23004.43660567 -.00000262  00000+0  00000+0 0  9994
2 41836   0.0499 203.4181 0001533 116.5797  81.6992  1.00270921 22554
SHIJIAN-17 (SJ-17)      
1 41838U 16065A   23004.62132867 -.00000253  00000+0  00000+0 0  9995
2 41838   2.5366  87.4536 0004109 252.9701  81.3691  1.00268543 22574
GOES 16                 
1 41866U 16071A   23004.51053622 -.00000235  00000+0  00000+0 0  9992
2 41866   0.0824 251.7619 0000944  55.4824 265.2031  1.00271459 22481
TIANLIAN 1-04           
1 41869U 16072A   23004.60396507  .00000043  00000+0  00000+0 0  9994
2 41869   0.0382  78.3672 0021201  57.6860   2.1157  1.00269524 22687
WGS F8 (USA 272)        
1 41879U 16075A   23004.62707582 -.00000189  00000+0  00000+0 0  9991
2 41879   0.0171  61.1146 0000223 194.3947 223.9796  1.00274178 22296
FENGYUN 4A              
1 41882U 16077A   23004.22340957 -.00000318  00000+0  00000+0 0  9996
2 41882   0.0414  39.8678 0005273  13.9822 234.7960  1.00275745 22340
ECHOSTAR 19             
1 41893U 16079A   23004.44907500 -.00000126  00000+0  00000+0 0  9994
2 41893   0.0170  41.5328 0001773 252.1691 234.6425  1.00272949 22084
JCSAT-110A (JCSAT-15)   
1 41903U 16082A   23004.33228378 -.00000338  00000+0  00000+0 0  9992
2 41903   0.0184  22.1942 0001648 258.0971  53.0627  1.00270738 22121
STAR ONE D1             
1 41904U 16082B   23004.51160444 -.00000198  00000+0  00000+0 0  9996
2 41904   0.0171  51.1326 0001966 228.6799 284.2199  1.00272181 22148
TJS-2                   
1 41911U 17001A   23004.53877769  .00000006  00000+0  00000+0 0  9990
2 41911   0.0654  54.6393 0004891 176.3916 133.2850  1.00272851 22099
SBIRS GEO-4 (USA 273)   
1 41937U 17004A   23004.56545017  .00000145  00000+0  00000+0 0  9996
2 41937   1.9723 324.3328 0002595 311.8868 231.8400  1.00272564 21973
HISPASAT 36W-1          
1 41942U 17006A   23004.51811958 -.00000232  00000+0  00000+0 0  9997
2 41942   0.0123  18.4544 0001007 267.7970 328.1363  1.00269668 21591
TELKOM 3S               
1 41944U 17007A   23004.59215987 -.00000350  00000+0  00000+0 0  9999
2 41944   0.0235  21.7676 0002640 255.2346 158.1050  1.00268701 21505
INTELSAT 32E (IS-32E)   
1 41945U 17007B   23004.51689927 -.00000256  00000+0  00000+0 0  9996
2 41945   0.0160  47.2252 0000195 173.3616  26.1638  1.00269731 21600
ECHOSTAR 23             
1 42070U 17014A   23004.54632635 -.00000044  00000+0  00000+0 0  9996
2 42070   0.0040  93.4438 0002092 192.7371 264.4712  1.00271387 21292
WGS F9 (USA 275)        
1 42075U 17016A   23004.45126403 -.00000083  00000+0  00000+0 0  9997
2 42075   0.0140  70.8368 0000676  97.3420  86.0986  1.00274874 21262
SES-10                  
1 42432U 17017A   23004.64698557 -.00000260  00000+0  00000+0 0  9997
2 42432   0.0201  56.5760 0003091 228.9240 344.4903  1.00269516 21098
CHINASAT 16 (SJ-13)     
1 42662U 17018A   23004.04516231 -.00000340  00000+0  00000+0 0  9994
2 42662   0.0768  89.2907 0007645 163.5961 337.2602  1.00269052 21103
KOREASAT 7              
1 42691U 17023A   23004.59215987 -.00000349  00000+0  00000+0 0  9995
2 42691   0.0229  21.8658 0001395 227.8315 183.3148  1.00271533 20746
SGDC                    
1 42692U 17023B   23003.92097380 -.00000237  00000+0  00000+0 0  9993
2 42692   0.0139   3.8034 0002421 281.1289  75.0306  1.00271560 20786
GSAT-9                  
1 42695U 17024A   23004.62132867 -.00000273  00000+0  00000+0 0  9995
2 42695   0.0324 102.8104 0002239 165.2644 156.8360  1.00267778 20679
INMARSAT 5-F4           
1 42698U 17025A   23004.46503609  .00000088  00000+0  00000+0 0  9990
2 42698   0.0288  38.0059 0000673 252.7107  36.9846  1.00270214 20649
SES-15                  
1 42709U 17026A   23004.51061396  .00000073  00000+0  00000+0 0  9996
2 42709   0.0174 356.0646 0000516 281.2092 241.2479  1.00266834 21510
QZS-2 (MICHIBIKI-2)     
1 42738U 17028A   23004.55743870 -.00000148  00000+0  00000+0 0  9992
2 42738  41.4381 261.3199 0755351 269.6458 274.6589  1.00280974 20514
VIASAT-2                
1 42740U 17029A   23004.43984542 -.00000252  00000+0  00000+0 0  9992
2 42740   0.0188 302.2078 0000395 325.0502 284.9528  1.00273164 20556
EUTELSAT 172B           
1 42741U 17029B   23004.60396507  .00000007  00000+0  00000+0 0  9997
2 42741   0.0547 166.9040 0000211  84.4701 241.9804  1.00271996 21095
GSAT-19                 
1 42747U 17031A   23003.88951590  .00000138  00000+0  00000+0 0  9999
2 42747   0.0455  95.8725 0000155  96.9595 278.4655  1.00271763 20501
